OBJECT_NAME,OBJECT_ID,EPOCH,MEAN_MOTION,ECCENTRICITY,INCLINATION,RA_OF_ASC_NODE,ARG_OF_PERICENTER,MEAN_ANOMALY,EPHEMERIS_TYPE,CLASSIFICATION_TYPE,NORAD_CAT_ID,ELEMENT_SET_NO,REV_AT_EPOCH,BSTAR,MEAN_MOTION_DOT,MEAN_MOTION_DDOT
CAPELLA-15 (ACADIA-5),2024-149CE,2026-07-03T22:48:28.751328,14.92411653,.00049922,97.6827,257.4400,27.5132,332.6351,0,U,60544,999,10235,.54722596E-3,.5552E-4,0
HAWK-10B,2024-149CF,2026-07-04T11:41:03.355296,14.96566896,.00061757,97.6812,260.4386,48.8721,311.3032,0,U,60545,999,10257,.20713746E-3,.23E-4,0
ICEYE-X39,2024-149CG,2026-07-04T16:31:33.503808,15.00016332,.00068535,97.6761,262.4746,74.1993,285.9986,0,U,60546,999,10274,.54468139E-3,.6723E-4,0
UMBRA-10,2024-149CH,2026-07-04T04:51:31.477824,15.18571492,.00008387,97.6973,272.7338,182.3750,177.7479,0,U,60547,999,10331,.10930095E-2,.22573E-3,0
ICEYE-X33,2024-149CJ,2026-07-04T12:04:15.750912,15.00897816,.00018957,97.7322,264.5536,80.0710,280.0728,0,U,60548,999,10280,.59677207E-3,.7541E-4,0
ICEYE-X40,2024-149CK,2026-07-03T19:14:39.589440,14.98000421,.00050653,97.6799,261.0312,33.9431,326.2114,0,U,60549,999,10256,.17825199E-3,.2047E-4,0
SATELIOT_1,2024-149CL,2026-07-04T15:50:08.331360,14.98138822,.00068884,97.6737,261.2687,24.0460,336.1083,0,U,60550,999,10268,.26395216E-3,.3071E-4,0
BRO-14,2024-149CM,2026-07-04T15:36:33.516288,14.96223989,.00077434,97.6870,261.1145,48.3161,311.8722,0,U,60551,999,10260,.1271669E-3,.1378E-4,0
SATELIOT_3,2024-149CN,2026-07-04T04:02:15.866880,14.98136595,.00060851,97.6827,261.5905,45.9506,314.2217,0,U,60552,999,10262,.35888683E-3,.4196E-4,0
BRO-15,2024-149CP,2026-07-03T16:43:18.639264,14.96217537,.0008892,97.6800,259.7643,43.1082,317.0834,0,U,60553,999,10247,.32836495E-3,.3649E-4,0
UM5-RIBAT,2024-149CQ,2026-07-03T19:17:02.228064,15.01171074,.0002068,97.6616,262.3794,32.8416,327.2936,0,U,60554,999,10268,.30242754E-3,.3819E-4,0
UM5-EOSAT,2024-149CR,2026-07-03T18:21:04.635072,15.01662884,.00092002,97.6758,263.3113,66.5437,293.6753,0,U,60555,999,10270,.36132876E-3,.4637E-4,0
LASARSAT,2024-247Q,2026-07-04T16:05:37.876992,15.47475389,.00063921,44.9731,163.8922,88.0405,272.1217,0,U,62391,999,8602,.13443371E-2,.70912E-3,0
CROCUBE,2024-247T,2026-07-04T07:46:26.256864,15.49468158,.00063327,44.9702,162.8872,91.7427,268.4189,0,U,62394,999,8600,.98588069E-3,.55566E-3,0
TEVEL2-4,2025-052D,2026-07-04T04:44:32.552736,15.35231929,.00044603,97.3880,81.6219,72.1659,288.0071,0,U,63213,999,7272,.77344373E-3,.26442E-3,0
TEVEL2-5,2025-052E,2026-07-03T23:01:24.056544,15.35036262,.00044711,97.3878,81.3261,74.0605,286.1131,0,U,63214,999,7268,.66991312E-3,.22739E-3,0
TEVEL2-6,2025-052F,2026-07-04T04:01:19.329312,15.35012398,.0004299,97.3882,81.5194,74.6482,285.5237,0,U,63215,999,7271,.73793881E-3,.25044E-3,0
TEVEL2-1,2025-052H,2026-07-02T10:36:17.123040,15.34387675,.000494,97.3860,79.3967,84.7539,275.4267,0,U,63217,999,7243,.64322E-3,.21382E-3,0
TEVEL2-3,2025-052J,2026-07-04T10:58:45.165216,15.34532305,.0004657,97.3857,81.4374,82.5997,277.5775,0,U,63218,999,7274,.8266232E-3,.27649E-3,0
TEVEL2-2,2025-052K,2026-07-04T11:07:41.842272,15.34484342,.00048476,97.3851,81.4223,81.4850,278.6942,0,U,63219,999,7274,.85302465E-3,.28496E-3,0
TEVEL2-9,2025-052AD,2026-07-03T14:45:18.109152,15.32416047,.0008273,97.3920,79.9121,87.9946,272.2243,0,U,63237,999,7254,.61259096E-3,.19142E-3,0
TEVEL2-7,2025-052AE,2026-07-04T10:37:25.443840,15.32144794,.00083419,97.3918,80.6472,86.1482,274.0714,0,U,63238,999,7266,.82678858E-3,.25666E-3,0
TEVEL2-8,2025-052AF,2026-07-04T15:31:41.259648,15.32151068,.00083852,97.3915,80.8275,86.0349,274.1851,0,U,63239,999,7269,.10845933E-2,.33735E-3,0
FORESAIL-1 PRIME,2025-276DS,2026-07-04T15:41:12.803424,15.18869999,.0003586,97.4190,258.6061,67.3521,292.8092,0,U,66778,999,3305,.41292487E-3,.8546E-4,0
