CAPELLA-15 (ACADIA-5)   
1 60544U 24149CE  26184.95033277  .00005552  00000+0  54723-3 0  9996
2 60544  97.6827 257.4400 0004992  27.5132 332.6351 14.92411653102356
HAWK-10B                
1 60545U 24149CF  26185.48684439  .00002300  00000+0  20714-3 0  9999
2 60545  97.6812 260.4386 0006175  48.8721 311.3032 14.96566896102571
ICEYE-X39               
1 60546U 24149CG  26185.68858222  .00006723  00000+0  54468-3 0  9991
2 60546  97.6761 262.4746 0006853  74.1993 285.9986 15.00016332102747
UMBRA-10                
1 60547U 24149CH  26185.20244766  .00022573  00000+0  10930-2 0  9998
2 60547  97.6973 272.7338 0000838 182.3750 177.7479 15.18571492103315
ICEYE-X33               
1 60548U 24149CJ  26185.50296008  .00007541  00000+0  59677-3 0  9998
2 60548  97.7322 264.5536 0001895  80.0710 280.0728 15.00897816102808
ICEYE-X40               
1 60549U 24149CK  26184.80184710  .00002047  00000+0  17825-3 0  9992
2 60549  97.6799 261.0312 0005065  33.9431 326.2114 14.98000421102569
SATELIOT_1              
1 60550U 24149CL  26185.65981865  .00003071  00000+0  26395-3 0  9994
2 60550  97.6737 261.2687 0006888  24.0460 336.1083 14.98138822102682
BRO-14                  
1 60551U 24149CM  26185.65038792  .00001378  00000+0  12717-3 0  9998
2 60551  97.6870 261.1145 0007743  48.3161 311.8722 14.96223989102606
SATELIOT_3              
1 60552U 24149CN  26185.16823920  .00004196  00000+0  35889-3 0  9996
2 60552  97.6827 261.5905 0006085  45.9506 314.2217 14.98136595102627
BRO-15                  
1 60553U 24149CP  26184.69674351  .00003649  00000+0  32836-3 0  9997
2 60553  97.6800 259.7643 0008892  43.1082 317.0834 14.96217537102477
UM5-RIBAT               
1 60554U 24149CQ  26184.80349801  .00003819  00000+0  30243-3 0  9999
2 60554  97.6616 262.3794 0002068  32.8416 327.2936 15.01171074102686
UM5-EOSAT               
1 60555U 24149CR  26184.76463698  .00004637  00000+0  36133-3 0  9999
2 60555  97.6758 263.3113 0009200  66.5437 293.6753 15.01662884102702
LASARSAT                
1 62391U 24247Q   26185.67057728  .00070912  00000+0  13443-2 0  9999
2 62391  44.9731 163.8922 0006392  88.0405 272.1217 15.47475389 86028
CROCUBE                 
1 62394U 24247T   26185.32391501  .00055566  00000+0  98588-3 0  9996
2 62394  44.9702 162.8872 0006332  91.7427 268.4189 15.49468158 86003
TEVEL2-4                
1 63213U 25052D   26185.19759899  .00026442  00000+0  77344-3 0  9993
2 63213  97.3880  81.6219 0004460  72.1659 288.0071 15.35231929 72727
TEVEL2-5                
1 63214U 25052E   26184.95930621  .00022739  00000+0  66991-3 0  9992
2 63214  97.3878  81.3261 0004471  74.0605 286.1131 15.35036262 72687
TEVEL2-6                
1 63215U 25052F   26185.16758483  .00025044  00000+0  73794-3 0  9992
2 63215  97.3882  81.5194 0004299  74.6482 285.5237 15.35012398 72715
TEVEL2-1                
1 63217U 25052H   26183.44186485  .00021382  00000+0  64322-3 0  9998
2 63217  97.3860  79.3967 0004940  84.7539 275.4267 15.34387675 72436
TEVEL2-3                
1 63218U 25052J   26185.45746719  .00027649  00000+0  82662-3 0  9993
2 63218  97.3857  81.4374 0004657  82.5997 277.5775 15.34532305 72741
TEVEL2-2                
1 63219U 25052K   26185.46367873  .00028496  00000+0  85302-3 0  9990
2 63219  97.3851  81.4223 0004847  81.4850 278.6942 15.34484342 72741
TEVEL2-9                
1 63237U 25052AD  26184.61479293  .00019142  00000+0  61259-3 0  9999
2 63237  97.3920  79.9121 0008273  87.9946 272.2243 15.32416047 72548
TEVEL2-7                
1 63238U 25052AE  26185.44265560  .00025666  00000+0  82679-3 0  9999
2 63238  97.3918  80.6472 0008341  86.1482 274.0714 15.32144794 72669
TEVEL2-8                
1 63239U 25052AF  26185.64700532  .00033735  00000+0  10846-2 0  9997
2 63239  97.3915  80.8275 0008385  86.0349 274.1851 15.32151068 72697
FORESAIL-1 PRIME        
1 66778U 25276DS  26185.65362041  .00008546  00000+0  41292-3 0  9998
2 66778  97.4190 258.6061 0003586  67.3521 292.8092 15.18869999 33058
